{"fetched_at":"2026-03-29T16:36:15Z","count":15609,"tles":[{"name":"STARLINK-34558","line1":"1 64721U 25142AB  26087.87029602  .00003347  00000+0  28802-3 0  9990","line2":"2 64721  69.9996 266.0939 0002339 269.0936  90.9955 14.98350628 42332","category":"Starlink"}]}