{
  "norad_id": 64721,
  "name": "STARLINK-34558",
  "history": [
    {
      "epoch": "2026-03-28T20:53:13.576128",
      "apogee_km": 573.6177364846617,
      "perigee_km": 570.366466091079,
      "latitude_deg": 56.689500801305854,
      "longitude_deg": 15.648417920107022,
      "semi_major_axis_km": 6950.12910128787,
      "eccentricity": 0.0002339,
      "inclination_deg": 69.9996,
      "raan_deg": 266.0939,
      "arg_perigee_deg": 269.0936,
      "mean_anomaly_deg": 90.9955,
      "mean_motion_rev_day": 14.98350628
    }
  ]
}